ORBCOMM-X               
1 21576U 91050C   25216.62893676  .00000281  00000+0  96301-4 0  9992
2 21576  98.3406 282.2356 0004489  53.9034 306.2571 14.43292861789109
ORBCOMM FM01            
1 23545U 95017A   25216.72775482  .00005046  00000+0  52392-3 0  9997
2 23545  69.9644 313.0542 0005653 256.1548 103.8978 14.90531464619747
ORBCOMM FM08            
1 25112U 97084A   25216.75454660  .00001543  00000+0  46999-3 0  9994
2 25112  45.0137 134.6990 0004857 124.6809 235.4500 14.45931908448402
ORBCOMM FM10            
1 25113U 97084B   25216.81195503  .00001444  00000+0  44426-3 0  9993
2 25113  45.0148 136.8895 0004167  78.7787 281.3532 14.45713808623554
ORBCOMM FM11            
1 25114U 97084C   25216.82493827  .00001383  00000+0  42965-3 0  9993
2 25114  45.0134 137.5483 0004855  83.8368 276.3037 14.45461758448516
